STARLINK-37573          
1 69422U 26126C   26171.16258753  .00077765  00000+0  51720-3 0  9993
2 69422  97.2837  31.2771 0001029  90.4415 269.6968 15.75204166  3216
STARLINK-37820          
1 69423U 26126D   26171.13845119  .00157227  00000+0  83789-3 0  9991
2 69423  97.2825  31.3112 0001871  84.0499 276.0982 15.79984571  3217
STARLINK-37822          
1 69424U 26126E   26171.13827274  .00141086  00000+0  75325-3 0  9997
2 69424  97.2822  31.3117 0002148  85.7226 274.4287 15.79986977  3216
STARLINK-37836          
1 69425U 26126F   26171.13809074  .00255895  00000+0  13516-2 0  9993
2 69425  97.2823  31.3119 0001844  75.0543 285.0929 15.79921613  3213
STARLINK-37850          
1 69426U 26126G   26171.13790679  .00158062  00000+0  84225-3 0  9998
2 69426  97.2822  31.3125 0001524  71.1777 288.9656 15.79985280  3265
STARLINK-37823          
1 69427U 26126H   26171.13775423 -.00458108  00000+0 -26592-2 0  9997
2 69427  97.2824  31.3123 0001186 159.4149 200.7167 15.79625093  3210
STARLINK-37834          
1 69428U 26126J   26171.14494604  .00094307  00000+0  62523-3 0  9998
2 69428  97.2838  31.3020 0001986  73.6343 286.5141 15.75224488  3216
STARLINK-37857          
1 69429U 26126K   26171.13737284  .00154920  00000+0  82589-3 0  9994
2 69429  97.2820  31.3130 0002629  58.5410 301.6115 15.79981112  3210
STARLINK-37866          
1 69430U 26126L   26171.13718497  .00097778  00000+0  52498-3 0  9994
2 69430  97.2824  31.3131 0001406  95.2104 264.9324 15.79984015  3260
STARLINK-37555          
1 69431U 26126M   26171.13700609  .00127031  00000+0  67972-3 0  9990
2 69431  97.2824  31.3137 0001481  89.3996 270.7442 15.79977330  3261
STARLINK-37870          
1 69432U 26126N   26171.13682692  .00253321  00000+0  13382-2 0  9999
2 69432  97.2821  31.3139 0001921 103.0117 257.1365 15.79925208  3214
STARLINK-37872          
1 69433U 26126P   26170.88329837  .00258852  00000+0  13619-2 0  9997
2 69433  97.2823  31.0463 0001327  98.1198 262.0221 15.79999833  3173
STARLINK-37815          
1 69434U 26126Q   26171.08918562  .00207418  00000+0  13533-2 0  9997
2 69434  97.2831  31.2249 0001931  76.2801 283.8680 15.75269128  3203
STARLINK-37801          
1 69435U 26126R   26170.56701878 -.00026943  00000+0 -16229-3 0  9990
2 69435  97.2825  30.7119 0002973 185.9362 174.1870 15.77587389  3177
STARLINK-37800          
1 69436U 26126S   26171.14071054  .00115353  00000+0  76368-3 0  9994
2 69436  97.2832  31.3079 0001325 109.5480 250.5928 15.75194955  3210
STARLINK-37792          
1 69437U 26126T   26171.07258871  .00215477  00000+0  11409-2 0  9993
2 69437  97.2823  31.2481 0001981  88.1916 271.9579 15.79972601  3250
STARLINK-37783          
1 69438U 26126U   26171.13556813  .00253157  00000+0  13344-2 0  9995
2 69438  97.2822  31.3151 0002212  83.9637 276.1883 15.79974485  3264
STARLINK-37771          
1 69439U 26126V   26171.15694461  .00122896  00000+0  81221-3 0  9995
2 69439  97.2832  31.2844 0001747  68.5330 291.6122 15.75212287  3219
STARLINK-37747          
1 69440U 26126W   26171.13574103  .00168571  00000+0  89853-3 0  9994
2 69440  97.2823  31.3151 0001280 107.2796 252.8612 15.79950304  3218
STARLINK-37629          
1 69443U 26127A   26171.25002315  .00037363  00000+0  24753-3 0  9994
2 69443  53.1594 247.1915 0001678  53.4266  90.2439 15.75173691  3131
STARLINK-37509          
1 69444U 26127B   26171.25002315 -.01799231  00000+0 -12125-1 0  9995
2 69444  53.1595 247.1467 0001323  83.0836  82.3642 15.77440900  3134
STARLINK-37641          
1 69445U 26127C   26171.25002315  .00086011  00000+0  43572-3 0  9990
2 69445  53.1588 247.1196 0001144 105.3303  73.3855 15.80836102  3137
STARLINK-37522          
1 69446U 26127D   26171.25002315 -.00044041  00000+0 -28438-3 0  9994
2 69446  53.1597 247.1380 0000835  60.9154 108.5138 15.75259275  3138
STARLINK-37640          
1 69447U 26127E   26171.25002315  .00085104  00000+0  43113-3 0  9995
2 69447  53.1588 247.0869 0001474  87.0603 107.4526 15.80839504  3133
STARLINK-37572          
1 69448U 26127F   26171.25002315 -.01922175  00000+0 -11780-1 0  9990
2 69448  53.1592 247.0532 0001518 105.4416 105.0398 15.79731914  3137
STARLINK-37643          
1 69449U 26127G   26171.25002315 -.00073013  00000+0 -47526-3 0  9997
2 69449  53.1598 247.0887 0001184  94.3021  99.0002 15.75285610  3131
STARLINK-37601          
1 69450U 26127H   26171.25002315 -.00032294  00000+0 -20720-3 0  9992
2 69450  53.1602 247.0845 0001586  97.6514  97.5364 15.75248560  3139
STARLINK-37578          
1 69451U 26127J   26171.25002315  .00076426  00000+0  38783-3 0  9994
2 69451  53.1590 247.0094 0001299  99.6221 132.1934 15.80845035  3135
STARLINK-37577          
1 69452U 26127K   26171.25002315  .00093694  00000+0  47386-3 0  9990
2 69452  53.1592 246.9943 0001285 110.8272 128.2817 15.80837918  3133
STARLINK-37500          
1 69453U 26127L   26171.25002315  .00066944  00000+0  34035-3 0  9996
2 69453  53.1590 246.9613 0001212  82.8438 172.4000 15.80856181  3136
