OBJECT_NAME,OBJECT_ID,EPOCH,MEAN_MOTION,ECCENTRICITY,INCLINATION,RA_OF_ASC_NODE,ARG_OF_PERICENTER,MEAN_ANOMALY,EPHEMERIS_TYPE,CLASSIFICATION_TYPE,NORAD_CAT_ID,ELEMENT_SET_NO,REV_AT_EPOCH,BSTAR,MEAN_MOTION_DOT,MEAN_MOTION_DDOT
STARLINK-37573,2026-126C,2026-06-20T03:54:07.562592,15.75204166,.00010299,97.2837,31.2771,90.4415,269.6968,0,U,69422,999,321,.51719709E-3,.77765E-3,0
STARLINK-37820,2026-126D,2026-06-20T03:19:22.182816,15.79984571,.00018713,97.2825,31.3112,84.0499,276.0982,0,U,69423,999,321,.83789107E-3,.157227E-2,0
STARLINK-37822,2026-126E,2026-06-20T03:19:06.764736,15.79986977,.00021486,97.2822,31.3117,85.7226,274.4287,0,U,69424,999,321,.75325039E-3,.141086E-2,0
STARLINK-37836,2026-126F,2026-06-20T03:18:51.039936,15.79921613,.00018442,97.2823,31.3119,75.0543,285.0929,0,U,69425,999,321,.13516049E-2,.255895E-2,0
STARLINK-37850,2026-126G,2026-06-20T03:18:35.146656,15.79985280,.00015241,97.2822,31.3125,71.1777,288.9656,0,U,69426,999,326,.84224905E-3,.158062E-2,0
STARLINK-37823,2026-126H,2026-06-20T03:18:21.965472,15.79625093,.00011862,97.2824,31.3123,159.4149,200.7167,0,U,69427,999,321,-.26592116E-2,-.458108E-2,0
STARLINK-37834,2026-126J,2026-06-20T03:28:43.337856,15.75224488,.0001986,97.2838,31.3020,73.6343,286.5141,0,U,69428,999,321,.62522517E-3,.94307E-3,0
STARLINK-37857,2026-126K,2026-06-20T03:17:49.013376,15.79981112,.00026296,97.2820,31.3130,58.5410,301.6115,0,U,69429,999,321,.8258936E-3,.15492E-2,0
STARLINK-37866,2026-126L,2026-06-20T03:17:32.781408,15.79984015,.00014061,97.2824,31.3131,95.2104,264.9324,0,U,69430,999,326,.52497681E-3,.97778E-3,0
STARLINK-37555,2026-126M,2026-06-20T03:17:17.326176,15.79977330,.00014817,97.2824,31.3137,89.3996,270.7442,0,U,69431,999,326,.67971887E-3,.127031E-2,0
STARLINK-37870,2026-126N,2026-06-20T03:17:01.845888,15.79925208,.00019215,97.2821,31.3139,103.0117,257.1365,0,U,69432,999,321,.13381985E-2,.253321E-2,0
STARLINK-37872,2026-126P,2026-06-19T21:11:56.979168,15.79999833,.00013275,97.2823,31.0463,98.1198,262.0221,0,U,69433,999,317,.13619339E-2,.258852E-2,0
STARLINK-37815,2026-126Q,2026-06-20T02:08:25.637568,15.75269128,.00019314,97.2831,31.2249,76.2801,283.8680,0,U,69434,999,320,.13533224E-2,.207418E-2,0
STARLINK-37801,2026-126R,2026-06-19T13:36:30.422592,15.77587389,.00029731,97.2825,30.7119,185.9362,174.1870,0,U,69435,999,317,-.16229191E-3,-.26943E-3,0
STARLINK-37800,2026-126S,2026-06-20T03:22:37.390656,15.75194955,.00013257,97.2832,31.3079,109.5480,250.5928,0,U,69436,999,321,.76368093E-3,.115353E-2,0
STARLINK-37792,2026-126T,2026-06-20T01:44:31.664544,15.79972601,.00019816,97.2823,31.2481,88.1916,271.9579,0,U,69437,999,325,.11409441E-2,.215477E-2,0
STARLINK-37783,2026-126U,2026-06-20T03:15:13.086432,15.79974485,.00022124,97.2822,31.3151,83.9637,276.1883,0,U,69438,999,326,.13343622E-2,.253157E-2,0
STARLINK-37771,2026-126V,2026-06-20T03:46:00.014304,15.75212287,.00017474,97.2832,31.2844,68.5330,291.6122,0,U,69439,999,321,.81221156E-3,.122896E-2,0
STARLINK-37747,2026-126W,2026-06-20T03:15:28.024992,15.79950304,.00012805,97.2823,31.3151,107.2796,252.8612,0,U,69440,999,321,.89853157E-3,.168571E-2,0
STARLINK-37629,2026-127A,2026-06-20T06:00:02.000160,15.75173691,.0001678,53.1594,247.1915,53.4266,90.2439,0,U,69443,999,313,.24752551E-3,.37363E-3,0
STARLINK-37509,2026-127B,2026-06-20T06:00:02.000160,15.77440900,.00013235,53.1595,247.1467,83.0836,82.3642,0,U,69444,999,313,-.1212523E-1,-.1799231E-1,0
STARLINK-37641,2026-127C,2026-06-20T06:00:02.000160,15.80836102,.0001144,53.1588,247.1196,105.3303,73.3855,0,U,69445,999,313,.43572086E-3,.86011E-3,0
STARLINK-37522,2026-127D,2026-06-20T06:00:02.000160,15.75259275,.00008351,53.1597,247.1380,60.9154,108.5138,0,U,69446,999,313,-.28437688E-3,-.44041E-3,0
STARLINK-37640,2026-127E,2026-06-20T06:00:02.000160,15.80839504,.00014747,53.1588,247.0869,87.0603,107.4526,0,U,69447,999,313,.4311334E-3,.85104E-3,0
STARLINK-37572,2026-127F,2026-06-20T06:00:02.000160,15.79731914,.00015187,53.1592,247.0532,105.4416,105.0398,0,U,69448,999,313,-.11780323E-1,-.1922175E-1,0
STARLINK-37643,2026-127G,2026-06-20T06:00:02.000160,15.75285610,.00011841,53.1598,247.0887,94.3021,99.0002,0,U,69449,999,313,-.47525901E-3,-.73013E-3,0
STARLINK-37601,2026-127H,2026-06-20T06:00:02.000160,15.75248560,.00015868,53.1602,247.0845,97.6514,97.5364,0,U,69450,999,313,-.20719864E-3,-.32294E-3,0
STARLINK-37578,2026-127J,2026-06-20T06:00:02.000160,15.80845035,.00012992,53.1590,247.0094,99.6221,132.1934,0,U,69451,999,313,.38782645E-3,.76426E-3,0
STARLINK-37577,2026-127K,2026-06-20T06:00:02.000160,15.80837918,.00012855,53.1592,246.9943,110.8272,128.2817,0,U,69452,999,313,.47386201E-3,.93694E-3,0
STARLINK-37500,2026-127L,2026-06-20T06:00:02.000160,15.80856181,.00012121,53.1590,246.9613,82.8438,172.4000,0,U,69453,999,313,.34034504E-3,.66944E-3,0
